NORAD_CAT_ID,OBJECT_NAME,OBJECT_TYPE,EPOCH,MEAN_MOTION,ECCENTRICITY,INCLINATION,RA_OF_ASC_NODE,ARG_OF_PERICENTER,MEAN_ANOMALY,BSTAR,MEAN_MOTION_DOT,MEAN_MOTION_DDOT,TLE_LINE0,TLE_LINE1,TLE_LINE2,SEMIMAJOR_AXIS,PERIOD,APOGEE,PERIGEE,DECAYED
54089.0,STARLINK-5143,PAYLOAD,2023-08-13 01:25:18,15.08834671,0.0001214,53.2151,232.1551,91.919,268.1941,1.6008e-05,-3.3e-07,0.0,0 STARLINK-5143,1 54089U 22136AQ  23225.05923643 -.00000033  00000-0  16008-4 0  9992,2 54089  53.2151 232.1551 0001214  91.9190 268.1941 15.08834671 45600,6917.897,95.438,540.602,538.922,0.0
54089.0,STARLINK-5143,PAYLOAD,2023-08-14 09:13:00,15.08837612,0.0001263,53.2151,226.2079,87.8883,272.2254,6.6172e-05,7.65e-06,0.0,0 STARLINK-5143,1 54089U 22136AQ  23226.38403702  .00000765  00000-0  66172-4 0  9996,2 54089  53.2151 226.2079 0001263  87.8883 272.2254 15.08837612 45809,6917.888,95.438,540.626,538.879,0.0
54089.0,STARLINK-5143,PAYLOAD,2023-08-15 17:00:43,15.0884038,0.0001305,53.2152,220.2605,86.8783,273.2358,9.2738e-05,1.188e-05,0.0,0 STARLINK-5143,1 54089U 22136AQ  23227.70883700  .00001188  00000-0  92738-4 0  9990,2 54089  53.2152 220.2605 0001305  86.8783 273.2358 15.08840380 46009,6917.879,95.438,540.647,538.841,0.0
54089.0,STARLINK-5143,PAYLOAD,2023-08-17 02:23:49,15.08839525,0.0001314,53.2158,214.0156,88.1855,271.9288,4.7986e-05,4.76e-06,0.0,0 STARLINK-5143,1 54089U 22136AQ  23229.09987761  .00000476  00000-0  47986-4 0  9990,2 54089  53.2158 214.0156 0001314  88.1855 271.9288 15.08839525 46211,6917.882,95.438,540.656,538.838,0.0
54089.0,STARLINK-5143,PAYLOAD,2023-08-17 10:20:44,15.08848144,0.000137,53.2159,212.5275,95.3784,264.7364,6.5571e-05,7.56e-06,0.0,0 STARLINK-5143,1 54089U 22136AQ  23229.43107067  .00000756  00000-0  65571-4 0  9992,2 54089  53.2159 212.5275 0001370  95.3784 264.7364 15.08848144 46267,6917.855,95.437,540.668,538.773,0.0
54089.0,STARLINK-5143,PAYLOAD,2023-08-18 02:14:36,15.08833761,0.0001405,53.2164,209.5543,97.6835,262.4316,-3.9242e-05,-9.12e-06,0.0,0 STARLINK-5143,1 54089U 22136AQ  23230.09348279 -.00000912  00000-0 -39242-4 0  9990,2 54089  53.2164 209.5543 0001405  97.6835 262.4316 15.08833761 46360,6917.899,95.438,540.736,538.792,0.0
54089.0,STARLINK-5143,PAYLOAD,2023-08-18 10:11:32,15.08841727,0.000134,53.2168,208.068,89.9183,270.1963,6.5884e-06,-1.83e-06,0.0,0 STARLINK-5143,1 54089U 22136AQ  23230.42467722 -.00000183  00000-0  65884-5 0  9993,2 54089  53.2168 208.0680 0001340  89.9183 270.1963 15.08841727 46419,6917.875,95.437,540.667,538.813,0.0
54089.0,STARLINK-5143,PAYLOAD,2023-08-19 21:10:02,15.08826882,0.0001465,53.2173,201.526,86.3647,273.7513,4.5928e-05,4.43e-06,0.0,0 STARLINK-5143,1 54089U 22136AQ  23231.88197013  .00000443  00000-0  45928-4 0  9991,2 54089  53.2173 201.5260 0001465  86.3647 273.7513 15.08826882 46630,6917.92,95.438,540.799,538.772,0.0
54089.0,STARLINK-5143,PAYLOAD,2023-08-20 08:17:43,15.0883554,0.0001329,53.2167,199.4451,95.9553,264.1591,5.7686e-05,6.3e-06,0.0,0 STARLINK-5143,1 54089U 22136AQ  23232.34564633  .00000630  00000-0  57686-4 0  9991,2 54089  53.2167 199.4451 0001329  95.9553 264.1591 15.08835540 46700,6917.894,95.438,540.678,538.84,0.0
54089.0,STARLINK-5143,PAYLOAD,2023-08-21 03:22:21,15.08844872,0.0001314,53.2166,195.877,97.7551,262.359,8.0895e-05,1e-05,0.0,0 STARLINK-5143,1 54089U 22136AQ  23233.14052216  .00001000  00000-0  80895-4 0  9999,2 54089  53.2166 195.8770 0001314  97.7551 262.3590 15.08844872 46825,6917.865,95.437,540.64,538.821,0.0
54089.0,STARLINK-5143,PAYLOAD,2023-08-22 03:13:08,15.08842302,0.0001295,53.2156,191.4159,95.0161,265.0979,0.00016713,2.373e-05,0.0,0 STARLINK-5143,1 54089U 22136AQ  23234.13412387  .00002373  00000-0  16713-3 0  9999,2 54089  53.2156 191.4159 0001295  95.0161 265.0979 15.08842302 46976,6917.873,95.437,540.634,538.842,0.0
54089.0,STARLINK-5143,PAYLOAD,2023-08-24 06:05:28,15.08841588,0.000132,53.2152,181.9003,90.041,270.0733,0.00010918,1.45e-05,0.0,0 STARLINK-5143,1 54089U 22136AQ  23236.25380722  .00001450  00000-0  10918-3 0  9997,2 54089  53.2152 181.9003 0001320  90.0410 270.0733 15.08841588 46828,6917.876,95.437,540.654,538.827,0.0
54089.0,STARLINK-5143,PAYLOAD,2023-08-25 02:45:29,15.08847476,0.0001437,53.2158,178.0348,93.6965,266.4192,0.00025092,3.708e-05,0.0,0 STARLINK-5143,1 54089U 22136AQ  23237.11492490  .00003708  00000-0  25092-3 0  9996,2 54089  53.2158 178.0348 0001437  93.6965 266.4192 15.08847476 47423,6917.858,95.437,540.717,538.728,0.0
54089.0,STARLINK-5143,PAYLOAD,2023-08-25 20:14:44,15.08837709,0.0001414,53.2163,174.7638,79.3546,280.7605,0.00022297,3.262e-05,0.0,0 STARLINK-5143,1 54089U 22136AQ  23237.84356945  .00003262  00000-0  22297-3 0  9999,2 54089  53.2163 174.7638 0001414  79.3546 280.7605 15.08837709 47533,6917.887,95.438,540.731,538.774,0.0
54089.0,STARLINK-5143,PAYLOAD,2023-08-26 01:00:53,15.08841589,0.0001326,53.2171,173.8717,93.2132,266.9012,8.7231e-05,1.101e-05,0.0,0 STARLINK-5143,1 54089U 22136AQ  23238.04228721  .00001101  00000-0  87231-4 0  9992,2 54089  53.2171 173.8717 0001326  93.2132 266.9012 15.08841589 47098,6917.876,95.437,540.658,538.823,0.0
54089.0,STARLINK-5143,PAYLOAD,2023-08-27 02:27:03,15.08842449,0.0001472,53.2182,169.118,98.2595,261.8564,3.1096e-05,2.07e-06,0.0,0 STARLINK-5143,1 54089U 22136AQ  23239.10212814  .00000207  00000-0  31096-4 0  9990,2 54089  53.2182 169.1180 0001472  98.2595 261.8564 15.08842449 47724,6917.873,95.437,540.756,538.72,0.0
54089.0,STARLINK-5143,PAYLOAD,2023-08-27 18:20:55,15.08840715,0.0001626,53.2179,166.1438,97.671,262.4467,2.7169e-05,1.44e-06,0.0,0 STARLINK-5143,1 54089U 22136AQ  23239.76453025  .00000144  00000-0  27169-4 0  9999,2 54089  53.2179 166.1438 0001626  97.6710 262.4467 15.08840715 47358,6917.878,95.438,540.868,538.618,0.0
54089.0,STARLINK-5143,PAYLOAD,2023-08-28 03:53:14,15.08840225,0.0001346,53.2171,164.3569,91.8191,268.2956,8.6637e-05,1.091e-05,0.0,0 STARLINK-5143,1 54089U 22136AQ  23240.16196988  .00001091  00000-0  86637-4 0  9994,2 54089  53.2171 164.3569 0001346  91.8191 268.2956 15.08840225 47884,6917.88,95.438,540.676,538.814,0.0
54089.0,STARLINK-5143,PAYLOAD,2023-08-28 11:50:10,15.08826054,0.0001358,53.2169,162.8701,82.6693,277.4454,0.00015739,2.217e-05,0.0,0 STARLINK-5143,1 54089U 22136AQ  23240.49317930  .00002217  00000-0  15739-3 0  9997,2 54089  53.2169 162.8701 0001358  82.6693 277.4454 15.08826054 47935,6917.923,95.438,540.727,538.849,0.0
54089.0,STARLINK-5143,PAYLOAD,2023-08-28 21:22:29,15.0883553,0.0001299,53.2167,161.0856,89.1904,270.9237,2.7001e-05,1.42e-06,0.0,0 STARLINK-5143,1 54089U 22136AQ  23240.89061690  .00000142  00000-0  27001-4 0  9991,2 54089  53.2167 161.0856 0001299  89.1904 270.9237 15.08835530 47527,6917.894,95.438,540.658,538.86,0.0
54089.0,STARLINK-5143,PAYLOAD,2023-08-29 00:33:15,15.0884108,0.0001332,53.2165,160.4914,84.4475,275.6669,2.4522e-05,1.02e-06,0.0,0 STARLINK-5143,1 54089U 22136AQ  23241.02309387  .00000102  00000-0  24522-4 0  9996,2 54089  53.2165 160.4914 0001332  84.4475 275.6669 15.08841080 48015,6917.877,95.437,540.664,538.821,0.0
54089.0,STARLINK-5143,PAYLOAD,2023-08-29 05:19:24,15.08851582,0.000126,53.2166,159.5987,91.0691,269.0446,2.8152e-05,1.6e-06,0.0,0 STARLINK-5143,1 54089U 22136AQ  23241.22180671  .00000160  00000-0  28152-4 0  9998,2 54089  53.2166 159.5987 0001260  91.0691 269.0446 15.08851582 48040,6917.845,95.437,540.582,538.838,0.0
54089.0,STARLINK-5143,PAYLOAD,2023-08-29 11:40:57,15.08837687,0.0001498,53.2172,158.4086,84.3616,275.7546,7.3399e-05,8.8e-06,0.0,0 STARLINK-5143,1 54089U 22136AQ  23241.48677576  .00000880  00000-0  73399-4 0  9993,2 54089  53.2172 158.4086 0001498  84.3616 275.7546 15.08837687 48089,6917.887,95.438,540.789,538.716,0.0
54089.0,STARLINK-5143,PAYLOAD,2023-08-30 11:31:45,15.08805918,0.0001621,53.2164,153.9506,88.0705,272.0473,0.00056571,8.718e-05,0.0,0 STARLINK-5143,1 54089U 22136AQ  23242.48038974  .00008718  00000-0  56571-3 0  9997,2 54089  53.2164 153.9506 0001621  88.0705 272.0473 15.08805918 48233,6917.985,95.44,540.971,538.728,0.0
54089.0,STARLINK-5143,PAYLOAD,2023-08-31 00:14:49,15.08841212,0.000127,53.2161,151.5697,89.6341,270.4797,0.00011055,1.472e-05,0.0,0 STARLINK-5143,1 54089U 22136AQ  23243.01029444  .00001472  00000-0  11055-3 0  9997,2 54089  53.2161 151.5697 0001270  89.6341 270.4797 15.08841212 48315,6917.877,95.437,540.62,538.863,0.0
54089.0,STARLINK-5143,PAYLOAD,2023-09-01 11:13:18,15.08844616,0.0001299,53.2171,145.0285,87.9901,272.124,3.0146e-05,1.92e-06,0.0,0 STARLINK-5143,1 54089U 22136AQ  23244.46757408  .00000192  00000-0  30146-4 0  9996,2 54089  53.2171 145.0285 0001299  87.9901 272.1240 15.08844616 48538,6917.866,95.437,540.63,538.833,0.0
54089.0,STARLINK-5143,PAYLOAD,2023-09-01 17:34:50,15.08845598,8.86e-05,53.217,143.8391,80.3201,279.7891,1.1556e-05,-1.04e-06,0.0,0 STARLINK-5143,1 54089U 22136AQ  23244.73253235 -.00000104  00000-0  11556-4 0  9993,2 54089  53.2170 143.8391 0000886  80.3201 279.7891 15.08845598 48100,6917.863,95.437,540.341,539.115,0.0
54089.0,STARLINK-5143,PAYLOAD,2023-09-02 03:07:09,15.08851426,0.0001624,53.2175,142.0548,89.8692,270.2487,0.00010422,1.372e-05,0.0,0 STARLINK-5143,1 54089U 22136AQ  23245.12996698  .00001372  00000-0  10422-3 0  9991,2 54089  53.2175 142.0548 0001624  89.8692 270.2487 15.08851426 48631,6917.845,95.437,540.834,538.587,0.0
54089.0,STARLINK-5143,PAYLOAD,2023-09-02 17:25:38,15.08835085,0.0001492,53.2177,139.378,89.0017,271.1146,-1.3425e-05,-5.02e-06,0.0,0 STARLINK-5143,1 54089U 22136AQ  23245.72614147 -.00000502  00000-0 -13425-4 0  9996,2 54089  53.2177 139.3780 0001492  89.0017 271.1146 15.08835085 48721,6917.895,95.438,540.793,538.728,0.0
54089.0,STARLINK-5143,PAYLOAD,2023-09-03 09:19:29,15.08839937,0.0001377,53.2171,136.404,88.9079,271.2071,2.5739e-05,1.22e-06,0.0,0 STARLINK-5143,1 54089U 22136AQ  23246.38853819  .00000122  00000-0  25739-4 0  9997,2 54089  53.2171 136.4040 0001377  88.9079 271.2071 15.08839937 48357,6917.881,95.438,540.698,538.793,0.0
